LEMUR-1                 
1 40044U 14033AL  26195.37577187  .00000793  00000+0  96764-4 0  9995
2 40044  97.7907 344.5827 0047847 350.6515   9.3805 14.85335466649505
LEMUR-2-GREENBERG       
1 42837U 17042N   26195.45912462  .00009907  00000+0  32148-3 0  9999
2 42837  97.3823  15.9753 0007194 263.1794  96.8630 15.32137916492567
LEMUR-2-ANDIS           
1 42838U 17042P   26195.48889097  .00012803  00000+0  36819-3 0  9998
2 42838  97.3675  16.2874 0007161 260.5891  99.4543 15.35907150492643
LEMUR-2-MONSON          
1 42839U 17042Q   26195.46214998  .00007974  00000+0  28795-3 0  9996
2 42839  97.4085  15.9085 0005293 249.0733 110.9940 15.28740925492334
LEMUR-2-FURIAUS         
1 42840U 17042R   26195.47156358  .00009631  00000+0  32274-3 0  9993
2 42840  97.3769  13.8814 0005948 335.0787  25.0166 15.31116721492389
LEMUR-2-PETERG          
1 42841U 17042S   26195.48935450  .00011220  00000+0  33253-3 0  9998
2 42841  97.3988  20.5866 0003244 222.8450 137.2541 15.35013227492623
LEMUR-2-DEMBITZ         
1 42842U 17042T   26195.49129556  .00009444  00000+0  31674-3 0  9992
2 42842  97.3821  16.9446 0005017 277.1829  82.8842 15.31097819492529
LEMUR-2-ZACHARY         
1 42845U 17042W   26195.47220841  .00031854  00000+0  51719-3 0  9994
2 42845  97.3570  27.7354 0002507 253.1238 106.9740 15.52670272493439
LEMUR-2-AMANDA-SVANTE   
1 48269U 21034B   26195.47355814  .00019893  00000+0  57016-3 0  9990
2 48269  97.5755 274.5097 0004592 144.9654 215.1892 15.35933008285242
LEMUR-2-SPECIAL-K       
1 48273U 21034F   26195.50736630  .00169653  00000+0  11494-2 0  9997
2 48273  97.5642 284.5394 0006350 215.1542 144.9304 15.74478549285978
LEMUR-2-EMBRIONOVIS     
1 56970U 23084AQ  26195.39935537  .00008371  00000+0  22446-3 0  9990
2 56970  97.6319 340.6609 0008246 209.4980 150.5800 15.38217107171861
LEMUR-2-DEVERILL-M-T    
1 57391U 23100F   26195.12704063  .00016951  00000+0  41261-3 0  9995
2 57391  99.4457 241.6936 0004703 301.5857  58.4923 15.41060007165398
LEMUR-2-BASS            
1 58259U 23174D   26195.50285289  .00011084  00000+0  24500-3 0  9995
2 58259  97.3850 280.6127 0007722  80.3800 279.8320 15.43980634149576
LEMUR-2-JK0903EM1407    
1 58336U 23174CJ  26195.21689161  .00017578  00000+0  28285-3 0  9994
2 58336  97.3928 286.4750 0003702  37.3632 322.7877 15.53035770149920
LEMUR-2-MJR092620       
1 58340U 23174CN  26195.48387774  .00012324  00000+0  25564-3 0  9994
2 58340  97.3982 286.0337 0005366  32.9435 327.2147 15.45847080149861
LEMUR-2-NIMBUS2000      
1 58899U 24022A   26195.55427785  .00012856  00000+0  31230-3 0  9998
2 58899  97.4080  45.9166 0008814  30.9199 329.2565 15.41099325136485
LEMUR-2-VALHALLA        
1 58900U 24022B   26195.55887615  .00009271  00000+0  23053-3 0  9994
2 58900  97.4076  45.8918 0009280  26.2624 333.9091 15.40475966136480
LEMUR-2-CAEL            
1 58903U 24022E   26195.54504394  .00010462  00000+0  24854-3 0  9990
2 58903  97.4059  46.8629 0007196  12.0765 348.0653 15.41842130136558
LEMUR-2-JOHNNYTRUONG    
1 59146U 24043BA  26195.38536762  .00027938  00000+0  31469-3 0  9995
2 59146  97.5387 348.8181 0004151  95.8907 264.2824 15.62516874132287
LEMUR-2-TOMATOKECHUP    
1 60471U 24149D   26195.20279132  .00006215  00000+0  17641-3 0  9992
2 60471  97.3801 277.3272 0003239 124.9206 235.2343 15.36570045106318
LEMUR-2-STELLA          
1 60533U 24149BT  26195.47827089  .00005826  00000+0  33972-3 0  9992
2 60533  97.6739 278.0620 0001297 117.3013 242.8349 15.12363321104622
LEMUR-2-MARHISYAM       
1 60536U 24149BW  26195.46890146  .00005576  00000+0  33070-3 0  9999
2 60536  97.6885 278.5284 0002603  69.7054 290.4455 15.11769415104603
LEMUR-2-AHMED-ASRAR     
1 60576U 24149DN  26195.47614237  .00006078  00000+0  34520-3 0  9998
2 60576  97.7010 280.7360 0001044 208.7479 151.3695 15.13297264104692
LEMUR-2-LLOYD           
1 60577U 24149DP  26195.48584821  .00005572  00000+0  34928-3 0  9995
2 60577  97.6750 276.6375 0004824  74.2312 285.9449 15.09744086104510
LEMUR-2-SQUIRRELCOMM    
1 60578U 24149DQ  26195.47337524  .00002608  00000+0  17628-3 0  9996
2 60578  97.6714 276.3029 0004096 331.6376  28.4628 15.07443074104515
LEMUR-2-SIERRINI        
1 60579U 24149DR  26195.16665968  .00006509  00000+0  38806-3 0  9994
2 60579  97.6848 277.8868 0006442  93.4482 266.7484 15.11500320104531
LEMUR-2-WILSON          
1 62694U 25009CP  26195.53265580  .00000683  00000+0  67175-4 0  9996
2 62694  97.7021 273.5180 0002058 328.3890  31.7207 14.95275516 81441
LEMUR-2-STAR-FOX        
1 62696U 25009CR  26195.46103207  .00003531  00000+0  26812-3 0  9994
2 62696  97.6913 276.8740 0002306  45.2596 314.8817 15.02835762 81653
LEMUR-2-ARIANNA         
1 62699U 25009CU  26195.19316994  .00003687  00000+0  27978-3 0  9992
2 62699  97.6852 276.3611 0002645  53.7789 306.3680 15.02835118 81619
LEMUR-2-ALISIA          
1 62706U 25009DB  26195.16575792  .00004562  00000+0  34200-3 0  9990
2 62706  97.6972 277.1569 0004140 131.7262 228.4318 15.03166245104210
