OBJECT_NAME,OBJECT_ID,EPOCH,MEAN_MOTION,ECCENTRICITY,INCLINATION,RA_OF_ASC_NODE,ARG_OF_PERICENTER,MEAN_ANOMALY,EPHEMERIS_TYPE,CLASSIFICATION_TYPE,NORAD_CAT_ID,ELEMENT_SET_NO,REV_AT_EPOCH,BSTAR,MEAN_MOTION_DOT,MEAN_MOTION_DDOT
LEMUR-1,2014-033AL,2026-07-14T09:01:06.689568,14.85335466,.00478477,97.7907,344.5827,350.6515,9.3805,0,U,40044,999,64950,.96764028E-4,.793E-5,0
LEMUR-2-GREENBERG,2017-042N,2026-07-14T11:01:08.367168,15.32137916,.00071946,97.3823,15.9753,263.1794,96.8630,0,U,42837,999,49256,.32148482E-3,.9907E-4,0
LEMUR-2-ANDIS,2017-042P,2026-07-14T11:44:00.179808,15.35907150,.00071615,97.3675,16.2874,260.5891,99.4543,0,U,42838,999,49264,.36819288E-3,.12803E-3,0
LEMUR-2-MONSON,2017-042Q,2026-07-14T11:05:29.758272,15.28740925,.00052931,97.4085,15.9085,249.0733,110.9940,0,U,42839,999,49233,.28794809E-3,.7974E-4,0
LEMUR-2-FURIAUS,2017-042R,2026-07-14T11:19:03.093312,15.31116721,.00059489,97.3769,13.8814,335.0787,25.0166,0,U,42840,999,49238,.32273586E-3,.9631E-4,0
LEMUR-2-PETERG,2017-042S,2026-07-14T11:44:40.228800,15.35013227,.00032447,97.3988,20.5866,222.8450,137.2541,0,U,42841,999,49262,.33252832E-3,.1122E-3,0
LEMUR-2-DEMBITZ,2017-042T,2026-07-14T11:47:27.936384,15.31097819,.00050174,97.3821,16.9446,277.1829,82.8842,0,U,42842,999,49252,.31674333E-3,.9444E-4,0
LEMUR-2-ZACHARY,2017-042W,2026-07-14T11:19:58.806624,15.52670272,.00025074,97.3570,27.7354,253.1238,106.9740,0,U,42845,999,49343,.51719306E-3,.31854E-3,0
LEMUR-2-AMANDA-SVANTE,2021-034B,2026-07-14T11:21:55.423296,15.35933008,.00045929,97.5755,274.5097,144.9654,215.1892,0,U,48269,999,28524,.57015784E-3,.19893E-3,0
LEMUR-2-SPECIAL-K,2021-034F,2026-07-14T12:10:36.448320,15.74478549,.00063507,97.5642,284.5394,215.1542,144.9304,0,U,48273,999,28597,.1149406E-2,.169653E-2,0
LEMUR-2-EMBRIONOVIS,2023-084AQ,2026-07-14T09:35:04.303968,15.38217107,.00082461,97.6319,340.6609,209.4980,150.5800,0,U,56970,999,17186,.22445854E-3,.8371E-4,0
LEMUR-2-DEVERILL-M-T,2023-100F,2026-07-14T03:02:56.310432,15.41060007,.00047036,99.4457,241.6936,301.5857,58.4923,0,U,57391,999,16539,.4126082E-3,.16951E-3,0
LEMUR-2-BASS,2023-174D,2026-07-14T12:04:06.489696,15.43980634,.00077222,97.3850,280.6127,80.3800,279.8320,0,U,58259,999,14957,.24499963E-3,.11084E-3,0
LEMUR-2-JK0903EM1407,2023-174CJ,2026-07-14T05:12:19.435104,15.53035770,.0003702,97.3928,286.4750,37.3632,322.7877,0,U,58336,999,14992,.28285209E-3,.17578E-3,0
LEMUR-2-MJR092620,2023-174CN,2026-07-14T11:36:47.036736,15.45847080,.0005366,97.3982,286.0337,32.9435,327.2147,0,U,58340,999,14986,.25564009E-3,.12324E-3,0
LEMUR-2-NIMBUS2000,2024-022A,2026-07-14T13:18:09.606240,15.41099325,.00088145,97.4080,45.9166,30.9199,329.2565,0,U,58899,999,13648,.31229508E-3,.12856E-3,0
LEMUR-2-VALHALLA,2024-022B,2026-07-14T13:24:46.899360,15.40475966,.000928,97.4076,45.8918,26.2624,333.9091,0,U,58900,999,13648,.230529E-3,.9271E-4,0
LEMUR-2-CAEL,2024-022E,2026-07-14T13:04:51.796416,15.41842130,.00071962,97.4059,46.8629,12.0765,348.0653,0,U,58903,999,13655,.24853812E-3,.10462E-3,0
LEMUR-2-JOHNNYTRUONG,2024-043BA,2026-07-14T09:14:55.762368,15.62516874,.00041511,97.5387,348.8181,95.8907,264.2824,0,U,59146,999,13228,.31469003E-3,.27938E-3,0
LEMUR-2-TOMATOKECHUP,2024-149D,2026-07-14T04:52:01.170048,15.36570045,.00032395,97.3801,277.3272,124.9206,235.2343,0,U,60471,999,10631,.1764107E-3,.6215E-4,0
LEMUR-2-STELLA,2024-149BT,2026-07-14T11:28:42.604896,15.12363321,.00012975,97.6739,278.0620,117.3013,242.8349,0,U,60533,999,10462,.33972489E-3,.5826E-4,0
LEMUR-2-MARHISYAM,2024-149BW,2026-07-14T11:15:13.086144,15.11769415,.00026036,97.6885,278.5284,69.7054,290.4455,0,U,60536,999,10460,.33070025E-3,.5576E-4,0
LEMUR-2-AHMED-ASRAR,2024-149DN,2026-07-14T11:25:38.700768,15.13297264,.00010446,97.7010,280.7360,208.7479,151.3695,0,U,60576,999,10469,.34520355E-3,.6078E-4,0
LEMUR-2-LLOYD,2024-149DP,2026-07-14T11:39:37.285344,15.09744086,.00048246,97.6750,276.6375,74.2312,285.9449,0,U,60577,999,10451,.34928188E-3,.5572E-4,0
LEMUR-2-SQUIRRELCOMM,2024-149DQ,2026-07-14T11:21:39.620736,15.07443074,.00040962,97.6714,276.3029,331.6376,28.4628,0,U,60578,999,10451,.17627746E-3,.2608E-4,0
LEMUR-2-SIERRINI,2024-149DR,2026-07-14T03:59:59.396352,15.11500320,.00064425,97.6848,277.8868,93.4482,266.7484,0,U,60579,999,10453,.38806053E-3,.6509E-4,0
LEMUR-2-WILSON,2025-009CP,2026-07-14T12:47:01.461120,14.95275516,.00020583,97.7021,273.5180,328.3890,31.7207,0,U,62694,999,8144,.67175352E-4,.683E-5,0
LEMUR-2-STAR-FOX,2025-009CR,2026-07-14T11:03:53.170848,15.02835762,.00023062,97.6913,276.8740,45.2596,314.8817,0,U,62696,999,8165,.26812149E-3,.3531E-4,0
LEMUR-2-ARIANNA,2025-009CU,2026-07-14T04:38:09.882816,15.02835118,.00026452,97.6852,276.3611,53.7789,306.3680,0,U,62699,999,8161,.27978379E-3,.3687E-4,0
LEMUR-2-ALISIA,2025-009DB,2026-07-14T03:58:41.484288,15.03166245,.00041402,97.6972,277.1569,131.7262,228.4318,0,U,62706,999,10421,.34199548E-3,.4562E-4,0
